{
  "type": "FeatureCollection",
  "features": [
    {
      "type": "Feature",
      "properties": {
        "norad_id": 32393,
        "name": "COSMOS 2434 (721)",
        "group": "gnss",
        "lat": 44.80215403026736,
        "lon": -133.2944325050504,
        "alt_km": 19114.45384865723,
        "timestamp": "2025-12-14T05:42:18.700285+00:00",
        "meta_object_name": "COSMOS 2434 (721)",
        "meta_object_id": "2007-065A",
        "meta_epoch": "2025-12-10T15:35:17.035872",
        "meta_mean_motion": 2.13101152,
        "meta_eccentricity": 0.0004304,
        "meta_inclination": 64.3147,
        "meta_ra_of_asc_node": 198.2738,
        "meta_arg_of_pericenter": 71.148,
        "meta_mean_anomaly": 107.63,
        "meta_ephemeris_type": 0,
        "meta_classification_type": "U",
        "meta_norad_cat_id": 32393,
        "meta_element_set_no": 999,
        "meta_rev_at_epoch": 13975,
        "meta_bstar": 0,
        "meta_mean_motion_dot": 4.8e-07,
        "meta_mean_motion_ddot": 0,
        "tle_line1": "1 32393U 07065A   25344.64950273  .00000048  00000+0  00000+0 0  9992",
        "tle_line2": "2 32393  64.3147 198.2738 0004304  71.1480 107.6300  2.13101152139755"
      },
      "geometry": {
        "type": "Point",
        "coordinates": [
          -133.2944325050504,
          44.80215403026736
        ]
      }
    },
    {
      "type": "Feature",
      "properties": {
        "norad_id": 32395,
        "name": "COSMOS 2436 (723)",
        "group": "gnss",
        "lat": -4.143650489381583,
        "lon": 20.223047647327302,
        "alt_km": 19176.280904024225,
        "timestamp": "2025-12-14T05:42:18.700298+00:00",
        "meta_object_name": "COSMOS 2436 (723)",
        "meta_object_id": "2007-065C",
        "meta_epoch": "2025-12-08T02:01:11.627904",
        "meta_mean_motion": 2.13100022,
        "meta_eccentricity": 0.00177472,
        "meta_inclination": 64.3236,
        "meta_ra_of_asc_node": 198.4308,
        "meta_arg_of_pericenter": 9.2257,
        "meta_mean_anomaly": 134.6131,
        "meta_ephemeris_type": 0,
        "meta_classification_type": "U",
        "meta_norad_cat_id": 32395,
        "meta_element_set_no": 999,
        "meta_rev_at_epoch": 13965,
        "meta_bstar": 0,
        "meta_mean_motion_dot": 5.1e-07,
        "meta_mean_motion_ddot": 0,
        "tle_line1": "1 32395U 07065C   25342.08416236  .00000051  00000+0  00000+0 0  9990",
        "tle_line2": "2 32395  64.3236 198.4308 0017747   9.2257 134.6131  2.13100022139656"
      },
      "geometry": {
        "type": "Point",
        "coordinates": [
          20.223047647327302,
          -4.143650489381583
        ]
      }
    },
    {
      "type": "Feature",
      "properties": {
        "norad_id": 32711,
        "name": "GPS BIIRM-6 (PRN 07)",
        "group": "gnss",
        "lat": 37.08378310508013,
        "lon": -170.00182935325626,
        "alt_km": 20690.361624953846,
        "timestamp": "2025-12-14T05:42:18.700309+00:00",
        "meta_object_name": "GPS BIIRM-6 (PRN 07)",
        "meta_object_id": "2008-012A",
        "meta_epoch": "2025-12-12T16:10:17.016384",
        "meta_mean_motion": 2.00565624,
        "meta_eccentricity": 0.02024443,
        "meta_inclination": 54.4771,
        "meta_ra_of_asc_node": 157.3754,
        "meta_arg_of_pericenter": 244.95,
        "meta_mean_anomaly": 112.9478,
        "meta_ephemeris_type": 0,
        "meta_classification_type": "U",
        "meta_norad_cat_id": 32711,
        "meta_element_set_no": 999,
        "meta_rev_at_epoch": 13001,
        "meta_bstar": 0,
        "meta_mean_motion_dot": 9.7e-07,
        "meta_mean_motion_ddot": 0,
        "tle_line1": "1 32711U 08012A   25346.67380806  .00000097  00000+0  00000+0 0  9997",
        "tle_line2": "2 32711  54.4771 157.3754 0202444 244.9500 112.9478  2.00565624130013"
      },
      "geometry": {
        "type": "Point",
        "coordinates": [
          -170.00182935325626,
          37.08378310508013
        ]
      }
    },
    {
      "type": "Feature",
      "properties": {
        "norad_id": 35752,
        "name": "GPS BIIRM-8 (PRN 05)",
        "group": "gnss",
        "lat": 49.78056116467138,
        "lon": 87.37124948320763,
        "alt_km": 20043.0828545574,
        "timestamp": "2025-12-14T05:42:18.700322+00:00",
        "meta_object_name": "GPS BIIRM-8 (PRN 05)",
        "meta_object_id": "2009-043A",
        "meta_epoch": "2025-12-13T15:33:53.607168",
        "meta_mean_motion": 2.00565679,
        "meta_eccentricity": 0.00517811,
        "meta_inclination": 56.0916,
        "meta_ra_of_asc_node": 34.7471,
        "meta_arg_of_pericenter": 81.8933,
        "meta_mean_anomaly": 279.8016,
        "meta_ephemeris_type": 0,
        "meta_classification_type": "U",
        "meta_norad_cat_id": 35752,
        "meta_element_set_no": 999,
        "meta_rev_at_epoch": 11964,
        "meta_bstar": 0,
        "meta_mean_motion_dot": -9.6e-07,
        "meta_mean_motion_ddot": 0,
        "tle_line1": "1 35752U 09043A   25347.64853712 -.00000096  00000+0  00000+0 0  9999",
        "tle_line2": "2 35752  56.0916  34.7471 0051781  81.8933 279.8016  2.00565679119645"
      },
      "geometry": {
        "type": "Point",
        "coordinates": [
          87.37124948320763,
          49.78056116467138
        ]
      }
    },
    {
      "type": "Feature",
      "properties": {
        "norad_id": 36111,
        "name": "COSMOS 2456 (730)",
        "group": "gnss",
        "lat": -25.710594492670772,
        "lon": -89.68490678764765,
        "alt_km": 19133.41414958422,
        "timestamp": "2025-12-14T05:42:18.700333+00:00",
        "meta_object_name": "COSMOS 2456 (730)",
        "meta_object_id": "2009-070A",
        "meta_epoch": "2025-12-09T05:47:54.858624",
        "meta_mean_motion": 2.13103359,
        "meta_eccentricity": 0.00028383,
        "meta_inclination": 64.8981,
        "meta_ra_of_asc_node": 77.4578,
        "meta_arg_of_pericenter": 298.5783,
        "meta_mean_anomaly": 37.1692,
        "meta_ephemeris_type": 0,
        "meta_classification_type": "U",
        "meta_norad_cat_id": 36111,
        "meta_element_set_no": 999,
        "meta_rev_at_epoch": 12437,
        "meta_bstar": 0,
        "meta_mean_motion_dot": -1.7e-07,
        "meta_mean_motion_ddot": 0,
        "tle_line1": "1 36111U 09070A   25343.24160716 -.00000017  00000+0  00000+0 0  9999",
        "tle_line2": "2 36111  64.8981  77.4578 0002838 298.5783  37.1692  2.13103359124373"
      },
      "geometry": {
        "type": "Point",
        "coordinates": [
          -89.68490678764765,
          -25.710594492670772
        ]
      }
    },
    {
      "type": "Feature",
      "properties": {
        "norad_id": 36112,
        "name": "COSMOS 2457 (733)",
        "group": "gnss",
        "lat": -20.073216161001874,
        "lon": 67.28556652665603,
        "alt_km": 19145.0024524359,
        "timestamp": "2025-12-14T05:42:18.700344+00:00",
        "meta_object_name": "COSMOS 2457 (733)",
        "meta_object_id": "2009-070B",
        "meta_epoch": "2025-12-13T07:58:58.732608",
        "meta_mean_motion": 2.13100875,
        "meta_eccentricity": 0.00047033,
        "meta_inclination": 64.8861,
        "meta_ra_of_asc_node": 77.165,
        "meta_arg_of_pericenter": 158.447,
        "meta_mean_anomaly": 204.9439,
        "meta_ephemeris_type": 0,
        "meta_classification_type": "U",
        "meta_norad_cat_id": 36112,
        "meta_element_set_no": 999,
        "meta_rev_at_epoch": 12447,
        "meta_bstar": 0,
        "meta_mean_motion_dot": -5.1e-07,
        "meta_mean_motion_ddot": 0,
        "tle_line1": "1 36112U 09070B   25347.33262422 -.00000051  00000+0  00000+0 0  9999",
        "tle_line2": "2 36112  64.8861  77.1650 0004703 158.4470 204.9439  2.13100875124473"
      },
      "geometry": {
        "type": "Point",
        "coordinates": [
          67.28556652665603,
          -20.073216161001874
        ]
      }
    },
    {
      "type": "Feature",
      "properties": {
        "norad_id": 36402,
        "name": "COSMOS 2460 (732)",
        "group": "gnss",
        "lat": -20.58246878663932,
        "lon": -49.13389061962373,
        "alt_km": 19129.56374016922,
        "timestamp": "2025-12-14T05:42:18.700356+00:00",
        "meta_object_name": "COSMOS 2460 (732)",
        "meta_object_id": "2010-007C",
        "meta_epoch": "2025-12-13T13:53:49.157952",
        "meta_mean_motion": 2.13106108,
        "meta_eccentricity": 0.00026771,
        "meta_inclination": 65.5289,
        "meta_ra_of_asc_node": 320.7443,
        "meta_arg_of_pericenter": 274.1475,
        "meta_mean_anomaly": 277.7778,
        "meta_ephemeris_type": 0,
        "meta_classification_type": "U",
        "meta_norad_cat_id": 36402,
        "meta_element_set_no": 999,
        "meta_rev_at_epoch": 12277,
        "meta_bstar": 0,
        "meta_mean_motion_dot": -6.1e-07,
        "meta_mean_motion_ddot": 0,
        "tle_line1": "1 36402U 10007C   25347.57904118 -.00000061  00000+0  00000+0 0  9995",
        "tle_line2": "2 36402  65.5289 320.7443 0002677 274.1475 277.7778  2.13106108122773"
      },
      "geometry": {
        "type": "Point",
        "coordinates": [
          -49.13389061962373,
          -20.58246878663932
        ]
      }
    }
  ]
}